[{"OBJECT_NAME":"NETSAT-3","OBJECT_ID":"2020-068V","EPOCH":"2026-03-09T21:45:04.914432","MEAN_MOTION":15.39054188,"ECCENTRICITY":0.00049805,"INCLINATION":97.8682,"RA_OF_ASC_NODE":67.7818,"ARG_OF_PERICENTER":358.0585,"MEAN_ANOMALY":2.0638,"EPHEMERIS_TYPE":0,"CLASSIFICATION_TYPE":"U","NORAD_CAT_ID":46505,"ELEMENT_SET_NO":999,"REV_AT_EPOCH":30039,"BSTAR":0.00060371861,"MEAN_MOTION_DOT":0.00023315,"MEAN_MOTION_DDOT":0},{"OBJECT_NAME":"IUS R\/B(1)","OBJECT_ID":"1983-026D","EPOCH":"2026-03-09T12:36:50.632128","MEAN_MOTION":4.18543997,"ECCENTRICITY":0.58894248,"INCLINATION":26.004,"RA_OF_ASC_NODE":285.166,"ARG_OF_PERICENTER":300.6543,"MEAN_ANOMALY":14.2493,"EPHEMERIS_TYPE":0,"CLASSIFICATION_TYPE":"U","NORAD_CAT_ID":13971,"ELEMENT_SET_NO":999,"REV_AT_EPOCH":50331,"BSTAR":0.00061486338,"MEAN_MOTION_DOT":2.018e-5,"MEAN_MOTION_DDOT":0}]
